#aV2014 11 29  0  0  0.00000000     288 DD+AD WGS84 FIT  NGA
## 1820 518400.00000000   300.00000000 56990 0.0000000000000
+   32     1  2  3  4  5  6  7  8  9 10 11 12 13 14 15 16 17
+         18 19 20 21 22 23 24 25 26 27 28 29 30 31 32  0  0
+          0  0  0  0  0  0  0  0  0  0  0  0  0  0  0  0  0
+          0  0  0  0  0  0  0  0  0  0  0  0  0  0  0  0  0
+          0  0  0  0  0  0  0  0  0  0  0  0  0  0  0  0  0
++         2  2  2  2  2  2  2  2  2  2  2  2  2  2  2  2  2
++         2  2  2  2  2  2  2  2  2  2  2  2  2  2  2  0  0
++         0  0  0  0  0  0  0  0  0  0  0  0  0  0  0  0  0
++         0  0  0  0  0  0  0  0  0  0  0  0  0  0  0  0  0
++         0  0  0  0  0  0  0  0  0  0  0  0  0  0  0  0  0
%c cc cc ccc ccc cccc cccc cccc cccc ccccc ccccc ccccc ccccc
%c cc cc ccc ccc cccc cccc cccc cccc ccccc ccccc ccccc ccccc
%f  0.0000000  0.000000000  0.00000000000  0.000000000000000
%f  0.0000000  0.000000000  0.00000000000  0.000000000000000
%i    0    0    0    0      0      0      0      0         0
%i    0    0    0    0      0      0      0      0         0
/*      NGA, ST. LOUIS,MO.                                  
/*   EPHEMERIS COMPUTED FROM  1 DAYS OF DATA                
/*   EPOCHA SMOOTHER                                       
/* CCCCCCCCCCCCCCCCCCCCCCCCCCCCCCCCCCCCCCCCCCCCCCCCCCCCCCCCC
*  2014 11 29  2  0  0.00000000
P  1 -22453.199059 -12453.038857   7065.902898    -11.653928                    
V  1  -5251.265456  -7739.349027 -29948.203714      0.003729                    
P  2   9658.250376  20763.146454  14174.015798    532.828085                    
V  2 -14986.320247  -8965.238631  23411.767412      0.022232                    
P  3  -3723.017993 -24140.574745  11046.337441     30.791471                    
V  3   4532.418837 -13173.653133 -27302.793111      0.359208                    
P  4 -18793.897462 -18677.723865  -3637.396462     -3.738297                    
V  4   5300.769845    167.707052 -30641.482099     -0.004809                    
P  5   3387.913102  24229.931716 -10167.718504   -312.427271                    
V  5  -5086.929809  12252.339925  27815.829047      0.045856                    
P  6  -3869.146283  15813.043901  20974.204515     17.635727                    
V  6 -21018.471933 -16422.497391   8480.678046      0.063844                    
P  7 -20330.407012  -2338.799444 -17024.113267    417.258250                    
V  7 -15388.056543 -15280.040471  20010.756408      0.036636                    
P  8 -18225.775252 -19779.650413    176.598782     16.494494                    
V  8    855.852180   -840.306274  32082.215690      0.001081                    
P  9 -25419.794532   6943.240791   3376.306867    -15.660826                    
V  9   3031.566840  -4146.253920  31329.349298     -0.082782                    
P 10  -8992.383063  23852.065649   6246.375459   -151.879589                    
V 10  -2106.752761  -9055.291226  30213.546357     -0.016267                    
P 11 -23451.218891 -12202.195276  -3845.294978   -539.795528                    
V 11   5694.390788  -2862.250370 -29531.788636     -0.028027                    
P 12  11252.679144  12273.262283  20670.913337    249.711018                    
V 12  -6169.171730  25561.147151 -11570.567483      0.028298                    
P 13 -11816.247663  15630.135108 -18194.721460    -64.854128                    
V 13 -22266.205847   4341.927207  18177.244251     -0.034745                    
P 14  17688.934869 -14651.471278  13444.218121    111.282656                    
V 14  16655.583154  -2597.176726 -25321.181476     -0.035962                    
P 15  19098.435854   6120.289960 -17637.921413   -217.309611                    
V 15 -19785.295225  10283.063257 -17610.384287     -0.022295                    
P 16  -1445.133360 -24141.914652 -10601.196234   -177.215517                    
V 16   4978.320739 -12655.908370  28641.577143      0.029084                    
P 17 -18504.981331  14675.465670  12191.533533   -140.558537                    
V 17 -15062.772651   2533.437691 -26734.603398     -0.023560                    
P 18  15181.479368 -12313.100128 -17376.800339    361.535206                    
V 18  -1130.775605  23334.022854 -17380.646681      0.026265                    
P 19 -13977.691234 -10679.765158 -20200.986200   -490.195708                    
V 19  24087.036096  -7192.093701 -12533.965151     -0.016886                    
P 20 -15235.344394  -5337.366330  20895.763411    261.729985                    
V 20   3319.358521 -26934.661836  -4347.595753      0.041354                    
P 21  17615.041551  -3819.683605 -18974.820800   -397.400752                    
V 21  18829.191259  17249.357935  13131.829042     -0.020877                    
P 22   9917.178420 -23073.038878  -8169.326064    291.673650                    
V 22   2140.003106  11243.930351 -28582.641243      0.038064                    
P 23 -23505.870396  -1267.994392  12835.987684    -70.730854                    
V 23  14258.196834  -7487.764986  25209.146728     -0.027679                    
P 24  22064.301546  14409.486548   3796.851055    -39.228580                    
V 24   1957.496318   5256.829687 -31061.243200     -0.006170                    
P 25  15186.681573  -2673.382233  21529.533457     12.015004                    
V 25  -4113.229138  27188.130511   6392.128809     -0.019018                    
P 26   5693.791365  14238.061943 -22362.853224   -139.106584                    
V 26 -25896.306762   6740.741710  -2100.522874     -0.131456                    
P 27  -2626.877915 -15059.176863 -21727.703579     33.307220                    
V 27  25928.757727  -9313.060817   3394.974976      0.027706                    
P 28 -12657.532199  19844.836246 -11565.273660    401.664566                    
V 28   1826.511115 -15672.727681 -27550.818739      0.026822                    
P 29  25659.121897  -4019.403782   5493.367488    576.238964                    
V 29  -5910.106955   4370.713193  30994.976668      0.023787                    
P 30 -13199.909144   8286.189615 -21508.522277    -82.795485                    
V 30 -19341.338325 -19304.059168   4385.030905     -0.018292                    
P 31   2112.409049 -16719.187358  20595.649338    328.285167                    
V 31  19981.539937  16433.557880  11691.608904     -0.006411                    
P 32  -6795.951496 -20195.758702  16196.246644   -282.939160                    
V 32   6869.295715 -19265.430414 -20607.487990      0.089211                    
EOF
